NORAD_CAT_ID,OBJECT_NAME,OBJECT_TYPE,EPOCH,MEAN_MOTION,ECCENTRICITY,INCLINATION,RA_OF_ASC_NODE,ARG_OF_PERICENTER,MEAN_ANOMALY,BSTAR,MEAN_MOTION_DOT,MEAN_MOTION_DDOT,TLE_LINE0,TLE_LINE1,TLE_LINE2,SEMIMAJOR_AXIS,PERIOD,APOGEE,PERIGEE,DECAYED
52838.0,STARLINK-4092,PAYLOAD,2024-02-01 18:09:05,15.0883992,0.0001336,53.2162,237.0073,87.8163,272.2982,6.75e-05,7.87e-06,0.0,0 STARLINK-4092,1 52838U 22062J   24032.75631609  .00000787  00000-0  67500-4 0  9990,2 52838  53.2162 237.0073 0001336  87.8163 272.2982 15.08839920 90494,6917.881,95.438,540.67,538.821,0.0
52838.0,STARLINK-4092,PAYLOAD,2024-02-02 13:13:43,15.08839305,0.0001599,53.2171,233.4397,94.6368,265.4807,3.8837e-05,3.3e-06,0.0,0 STARLINK-4092,1 52838U 22062J   24033.55119820  .00000330  00000-0  38837-4 0  9990,2 52838  53.2171 233.4397 0001599  94.6368 265.4807 15.08839305 90124,6917.883,95.438,540.854,538.641,0.0
52838.0,STARLINK-4092,PAYLOAD,2024-02-02 19:35:16,15.08839496,0.0001529,53.2168,232.2501,92.5387,267.578,3.0871e-05,2.03e-06,0.0,0 STARLINK-4092,1 52838U 22062J   24033.81615846  .00000203  00000-0  30871-4 0  9997,2 52838  53.2168 232.2501 0001529  92.5387 267.5780 15.08839496 90657,6917.882,95.438,540.805,538.689,0.0
52838.0,STARLINK-4092,PAYLOAD,2024-02-02 22:46:02,15.08840646,0.0001517,53.2167,231.6549,94.9481,265.1684,3.721e-05,3.04e-06,0.0,0 STARLINK-4092,1 52838U 22062J   24033.94863717  .00000304  00000-0  37210-4 0  9999,2 52838  53.2167 231.6549 0001517  94.9481 265.1684 15.08840646 90183,6917.878,95.438,540.793,538.694,0.0
52838.0,STARLINK-4092,PAYLOAD,2024-02-03 19:26:02,15.08841806,0.0001397,53.2164,227.7888,89.9224,270.1928,5.9961e-05,6.67e-06,0.0,0 STARLINK-4092,1 52838U 22062J   24034.80975571  .00000667  00000-0  59961-4 0  9996,2 52838  53.2164 227.7888 0001397  89.9224 270.1928 15.08841806 90318,6917.875,95.437,540.706,538.773,0.0
52838.0,STARLINK-4092,PAYLOAD,2024-02-03 22:36:49,15.08842589,0.0001393,53.2163,227.1938,89.064,271.0512,6.1814e-05,6.96e-06,0.0,0 STARLINK-4092,1 52838U 22062J   24034.94223467  .00000696  00000-0  61814-4 0  9993,2 52838  53.2163 227.1938 0001393  89.0640 271.0512 15.08842589 90820,6917.872,95.437,540.701,538.774,0.0
52838.0,STARLINK-4092,PAYLOAD,2024-02-04 17:41:27,15.08831534,0.0001341,53.2161,223.624,91.1171,268.9975,0.00011459,1.536e-05,0.0,0 STARLINK-4092,1 52838U 22062J   24035.73712045  .00001536  00000-0  11459-3 0  9999,2 52838  53.2161 223.6240 0001341  91.1171 268.9975 15.08831534 90940,6917.906,95.438,540.699,538.844,0.0
52838.0,STARLINK-4092,PAYLOAD,2024-02-04 22:27:36,15.08829004,0.0001353,53.2162,222.7315,93.1687,266.946,0.00015227,2.136e-05,0.0,0 STARLINK-4092,1 52838U 22062J   24035.93584162  .00002136  00000-0  15227-3 0  9992,2 52838  53.2162 222.7315 0001353  93.1687 266.9460 15.08829004 90486,6917.914,95.438,540.715,538.843,0.0
52838.0,STARLINK-4092,PAYLOAD,2024-02-05 12:46:04,15.08841035,0.0001525,53.2173,220.0548,86.9622,273.1544,3.6669e-05,2.96e-06,0.0,0 STARLINK-4092,1 52838U 22062J   24036.53199764  .00000296  00000-0  36669-4 0  9998,2 52838  53.2173 220.0548 0001525  86.9622 273.1544 15.08841035 90578,6917.877,95.437,540.797,538.687,0.0
52838.0,STARLINK-4092,PAYLOAD,2024-02-05 19:07:37,15.08842761,0.0001389,53.2166,218.8665,93.974,266.1411,3.5319e-05,2.74e-06,0.0,0 STARLINK-4092,1 52838U 22062J   24036.79695605  .00000274  00000-0  35319-4 0  9998,2 52838  53.2166 218.8665 0001389  93.9740 266.1411 15.08842761 91104,6917.872,95.437,540.698,538.776,0.0
52838.0,STARLINK-4092,PAYLOAD,2024-02-06 11:01:28,15.08831495,0.0001289,53.2169,215.8931,96.5844,263.5295,0.00010505,1.384e-05,0.0,0 STARLINK-4092,1 52838U 22062J   24037.45936238  .00001384  00000-0  10505-3 0  9994,2 52838  53.2169 215.8931 0001289  96.5844 263.5295 15.08831495 91207,6917.906,95.438,540.663,538.88,0.0
52838.0,STARLINK-4092,PAYLOAD,2024-02-06 18:58:24,15.08840243,0.0001733,53.2163,214.4065,122.9533,237.1626,-2.4888e-05,-6.84e-06,0.0,0 STARLINK-4092,1 52838U 22062J   24037.79055973 -.00000684  00000-0 -24888-4 0  9993,2 52838  53.2163 214.4065 0001733 122.9533 237.1626 15.08840243 90763,6917.88,95.438,540.944,538.546,0.0
52838.0,STARLINK-4092,PAYLOAD,2024-02-07 18:49:07,15.08887807,0.0002506,53.2163,209.9458,44.7255,315.3939,0.0004041,6.157e-05,0.0,0 STARLINK-4092,1 52838U 22062J   24038.78411372  .00006157  00000-0  40410-3 0  9999,2 52838  53.2163 209.9458 0002506  44.7255 315.3939 15.08887807 91404,6917.734,95.435,541.333,537.866,0.0
52838.0,STARLINK-4092,PAYLOAD,2024-02-08 10:43:03,15.08821999,0.0001428,53.216,206.973,95.5885,264.527,-0.00010611,-1.975e-05,0.0,0 STARLINK-4092,1 52838U 22062J   24039.44656783 -.00001975  00000-0 -10611-3 0  9995,2 52838  53.2160 206.9730 0001428  95.5885 264.5270 15.08821999 91500,6917.935,95.439,540.788,538.813,0.0
52838.0,STARLINK-4092,PAYLOAD,2024-02-08 18:39:59,15.08819824,0.0001401,53.2164,205.486,96.3308,263.7844,-0.00011829,-2.169e-05,0.0,0 STARLINK-4092,1 52838U 22062J   24039.77777270 -.00002169  00000-0 -11829-3 0  9994,2 52838  53.2164 205.4860 0001401  96.3308 263.7844 15.08819824 91065,6917.942,95.439,540.776,538.838,0.0
52838.0,STARLINK-4092,PAYLOAD,2024-02-09 10:33:50,15.08875594,0.0001603,53.2176,202.512,100.9441,259.1732,-0.00059044,-9.682e-05,0.0,0 STARLINK-4092,1 52838U 22062J   24040.44016234 -.00009682  00000-0 -59044-3 0  9994,2 52838  53.2176 202.5120 0001603 100.9441 259.1732 15.08875594 91655,6917.772,95.435,540.746,538.528,0.0
52838.0,STARLINK-4092,PAYLOAD,2024-02-09 16:55:21,15.08881706,0.0001597,53.2173,201.3238,97.9048,262.2125,-0.00056243,-9.238e-05,0.0,0 STARLINK-4092,1 52838U 22062J   24040.70511123 -.00009238  00000-0 -56243-3 0  9995,2 52838  53.2173 201.3238 0001597  97.9048 262.2125 15.08881706 91696,6917.753,95.435,540.723,538.513,0.0
52838.0,STARLINK-4092,PAYLOAD,2024-02-10 10:24:37,15.08825926,0.0001375,53.217,198.0527,93.6567,266.4582,0.00025453,3.764e-05,0.0,0 STARLINK-4092,1 52838U 22062J   24041.43376354  .00003764  00000-0  25453-3 0  9996,2 52838  53.2170 198.0527 0001375  93.6567 266.4582 15.08825926 91807,6917.923,95.438,540.74,538.837,0.0
52838.0,STARLINK-4092,PAYLOAD,2024-02-10 13:35:23,15.0882834,0.0001382,53.2171,197.4581,93.5985,266.5166,0.00027421,4.077e-05,0.0,0 STARLINK-4092,1 52838U 22062J   24041.56624434  .00004077  00000-0  27421-3 0  9990,2 52838  53.2171 197.4581 0001382  93.5985 266.5166 15.08828340 91332,6917.916,95.438,540.737,538.825,0.0
52838.0,STARLINK-4092,PAYLOAD,2024-02-10 19:56:56,15.0884381,0.000135,53.216,196.2672,86.224,273.8907,0.0004241,6.469e-05,0.0,0 STARLINK-4092,1 52838U 22062J   24041.83120524  .00006469  00000-0  42410-3 0  9993,2 52838  53.2160 196.2672 0001350  86.2240 273.8907 15.08843810 91373,6917.869,95.437,540.668,538.8,0.0
52838.0,STARLINK-4092,PAYLOAD,2024-02-11 13:26:11,15.08829388,0.0001571,53.2162,192.9948,94.9868,265.1303,0.00057398,8.856e-05,0.0,0 STARLINK-4092,1 52838U 22062J   24042.55985349  .00008856  00000-0  57398-3 0  9990,2 52838  53.2162 192.9948 0001571  94.9868 265.1303 15.08829388 91481,6917.913,95.438,540.865,538.691,0.0
52838.0,STARLINK-4092,PAYLOAD,2024-02-11 19:47:42,15.08850093,0.0001608,53.2163,191.8043,110.5253,249.5912,0.00016934,2.409e-05,0.0,0 STARLINK-4092,1 52838U 22062J   24042.82480040  .00002409  00000-0  16934-3 0  9997,2 52838  53.2163 191.8043 0001608 110.5253 249.5912 15.08850093 91524,6917.85,95.437,540.827,538.602,0.0
52838.0,STARLINK-4092,PAYLOAD,2024-02-12 10:06:11,15.08841941,0.0001874,53.2165,189.1241,124.0435,236.0735,-2.375e-05,-6.66e-06,0.0,0 STARLINK-4092,1 52838U 22062J   24043.42096381 -.00000666  00000-0 -23750-4 0  9995,2 52838  53.2165 189.1241 0001874 124.0435 236.0735 15.08841941 92104,6917.874,95.437,541.036,538.443,0.0
52838.0,STARLINK-4092,PAYLOAD,2024-02-12 14:52:20,15.08843047,0.0001579,53.2163,188.2345,110.942,249.1741,8.4621e-06,-1.53e-06,0.0,0 STARLINK-4092,1 52838U 22062J   24043.61968295 -.00000153  00000-0  84621-5 0  9993,2 52838  53.2163 188.2345 0001579 110.9420 249.1741 15.08843047 91646,6917.871,95.437,540.828,538.644,0.0
52838.0,STARLINK-4092,PAYLOAD,2024-02-12 16:27:43,15.08842813,0.0001474,53.2174,187.9395,103.5664,256.5492,3.9174e-05,3.36e-06,0.0,0 STARLINK-4092,1 52838U 22062J   24043.68592542  .00000336  00000-0  39174-4 0  9992,2 52838  53.2174 187.9395 0001474 103.5664 256.5492 15.08842813 91657,6917.872,95.437,540.756,538.717,0.0
52838.0,STARLINK-4092,PAYLOAD,2024-02-13 14:43:08,15.08839342,0.0001527,53.2175,183.7798,103.591,256.5252,-1.6747e-06,-3.15e-06,0.0,0 STARLINK-4092,1 52838U 22062J   24044.61329197 -.00000315  00000-0 -16747-5 0  9991,2 52838  53.2175 183.7798 0001527 103.5910 256.5252 15.08839342 91794,6917.882,95.438,540.804,538.691,0.0
52838.0,STARLINK-4092,PAYLOAD,2024-02-13 19:29:17,15.08847889,0.0001352,53.2168,182.8864,83.6955,276.4191,4.1378e-05,3.71e-06,0.0,0 STARLINK-4092,1 52838U 22062J   24044.81200559  .00000371  00000-0  41378-4 0  9990,2 52838  53.2168 182.8864 0001352  83.6955 276.4191 15.08847889 92310,6917.856,95.437,540.657,538.786,0.0
52838.0,STARLINK-4092,PAYLOAD,2024-02-14 14:33:55,15.08841208,0.0001693,53.2169,179.3188,93.831,266.2876,0.00013573,1.873e-05,0.0,0 STARLINK-4092,1 52838U 22062J   24045.60688936  .00001873  00000-0  13573-3 0  9990,2 52838  53.2169 179.3188 0001693  93.8310 266.2876 15.08841208 91941,6917.877,95.437,540.913,538.571,0.0
52838.0,STARLINK-4092,PAYLOAD,2024-02-14 17:44:40,15.08856026,0.0001491,53.217,178.7242,96.8556,263.2606,0.00034251,5.17e-05,0.0,0 STARLINK-4092,1 52838U 22062J   24045.73936162  .00005170  00000-0  34251-3 0  9991,2 52838  53.2170 178.7242 0001491  96.8556 263.2606 15.08856026 91962,6917.831,95.437,540.728,538.665,0.0
52838.0,STARLINK-4092,PAYLOAD,2024-02-15 01:41:37,15.08835257,0.0002095,53.2161,177.2398,92.6593,267.4639,3.5849e-05,2.82e-06,0.0,0 STARLINK-4092,1 52838U 22062J   24046.07057317  .00000282  00000-0  35849-4 0  9999,2 52838  53.2161 177.2398 0002095  92.6593 267.4639 15.08835257 92500,6917.895,95.438,541.209,538.311,0.0
